{"type": "FeatureCollection", "features": [ {"type": "Feature", "properties": {"norad_id": 44542, "name": "BEIDOU-3 M24 (C46)", "group": "beidou", "lat": -28.26737389542578, "lon": 31.795182134155453, "alt_km": 21558.09287487033, "timestamp": "2025-12-09T11:33:55.065150+00:00", "meta": {"OBJECT_NAME": "BEIDOU-3 M24 (C46)", "OBJECT_ID": "2019-061A", "EPOCH": "2025-12-08T02:04:30.505152", "MEAN_MOTION": 1.86229279, "ECCENTRICITY": 0.00095745, "INCLINATION": 54.4002, "RA_OF_ASC_NODE": 189.1732, "ARG_OF_PERICENTER": 24.5539, "MEAN_ANOMALY": 335.5587, "EPHEMERIS_TYPE": 0, "CLASSIFICATION_TYPE": "U", "NORAD_CAT_ID": 44542, "ELEMENT_SET_NO": 999, "REV_AT_EPOCH": 4223, "BSTAR": 0, "MEAN_MOTION_DOT": 5.3e-07, "MEAN_MOTION_DDOT": 0}, "tle": {"line1": "1 44542U 19061A   25342.08646418  .00000053  00000+0  00000+0 0  9995", "line2": "2 44542  54.4002 189.1732 0009574  24.5539 335.5587  1.86229279 42233"}}, "geometry": {"type": "Point", "coordinates": [31.795182134155453, -28.26737389542578]}}, {"type": "Feature", "properties": {"norad_id": 44543, "name": "BEIDOU-3 M23 (C45)", "group": "beidou", "lat": 39.504184695119726, "lon": -27.112758456881522, "alt_km": 21528.059671708423, "timestamp": "2025-12-09T11:33:55.065161+00:00", "meta": {"OBJECT_NAME": "BEIDOU-3 M23 (C45)", "OBJECT_ID": "2019-061B", "EPOCH": "2025-12-08T18:00:07.463232", "MEAN_MOTION": 1.8622754, "ECCENTRICITY": 0.00060873, "INCLINATION": 54.3989, "RA_OF_ASC_NODE": 189.119, "ARG_OF_PERICENTER": 23.0878, "MEAN_ANOMALY": 334.736, "EPHEMERIS_TYPE": 0, "CLASSIFICATION_TYPE": "U", "NORAD_CAT_ID": 44543, "ELEMENT_SET_NO": 999, "REV_AT_EPOCH": 4224, "BSTAR": 0, "MEAN_MOTION_DOT": 5e-07, "MEAN_MOTION_DDOT": 0}, "tle": {"line1": "1 44543U 19061B   25342.75008638  .00000050  00000+0  00000+0 0  9993", "line2": "2 44543  54.3989 189.1190 0006087  23.0878 334.7360  1.86227540 42241"}}, "geometry": {"type": "Point", "coordinates": [-27.112758456881522, 39.504184695119726]}}, {"type": "Feature", "properties": {"norad_id": 44709, "name": "BEIDOU-3 IGSO-3 (C40)", "group": "beidou", "lat": 54.40736084661401, "lon": -0.5893777102951848, "alt_km": 35849.79196017073, "timestamp": "2025-12-09T11:33:55.065173+00:00", "meta": {"OBJECT_NAME": "BEIDOU-3 IGSO-3 (C40)", "OBJECT_ID": "2019-073A", "EPOCH": "2025-11-20T07:11:22.740000", "MEAN_MOTION": 1.00250097, "ECCENTRICITY": 0.0044538, "INCLINATION": 55.163, "RA_OF_ASC_NODE": 283.159, "ARG_OF_PERICENTER": 191.5856, "MEAN_ANOMALY": 168.2409, "EPHEMERIS_TYPE": 0, "CLASSIFICATION_TYPE": "U", "NORAD_CAT_ID": 44709, "ELEMENT_SET_NO": 999, "REV_AT_EPOCH": 2236, "BSTAR": 0, "MEAN_MOTION_DOT": -2.06e-06, "MEAN_MOTION_DDOT": 0}, "tle": {"line1": "1 44709U 19073A   25324.29956875 -.00000206  00000+0  00000+0 0  9998", "line2": "2 44709  55.1630 283.1590 0044538 191.5856 168.2409  1.00250097 22360"}}, "geometry": {"type": "Point", "coordinates": [-0.5893777102951848, 54.40736084661401]}}, {"type": "Feature", "properties": {"norad_id": 44793, "name": "BEIDOU-3 M22 (C44)", "group": "beidou", "lat": -29.370215591490442, "lon": -77.54628667759444, "alt_km": 21523.94637132193, "timestamp": "2025-12-09T11:33:55.065187+00:00", "meta": {"OBJECT_NAME": "BEIDOU-3 M22 (C44)", "OBJECT_ID": "2019-078A", "EPOCH": "2025-12-09T00:00:40.080096", "MEAN_MOTION": 1.86231694, "ECCENTRICITY": 0.0005608, "INCLINATION": 54.1119, "RA_OF_ASC_NODE": 306.5176, "ARG_OF_PERICENTER": 23.0098, "MEAN_ANOMALY": 337.0045, "EPHEMERIS_TYPE": 0, "CLASSIFICATION_TYPE": "U", "NORAD_CAT_ID": 44793, "ELEMENT_SET_NO": 999, "REV_AT_EPOCH": 4110, "BSTAR": 0, "MEAN_MOTION_DOT": -7.5e-07, "MEAN_MOTION_DDOT": 0}, "tle": {"line1": "1 44793U 19078A   25343.00046389 -.00000075  00000+0  00000+0 0  9990", "line2": "2 44793  54.1119 306.5176 0005608  23.0098 337.0045  1.86231694 41107"}}, "geometry": {"type": "Point", "coordinates": [-77.54628667759444, -29.370215591490442]}}, {"type": "Feature", "properties": {"norad_id": 44794, "name": "BEIDOU-3 M21 (C43)", "group": "beidou", "lat": -38.7041855589468, "lon": 161.91765991497283, "alt_km": 21541.12558498861, "timestamp": "2025-12-09T11:33:55.065198+00:00", "meta": {"OBJECT_NAME": "BEIDOU-3 M21 (C43)", "OBJECT_ID": "2019-078B", "EPOCH": "2025-12-08T14:25:34.118976", "MEAN_MOTION": 1.86227419, "ECCENTRICITY": 0.00038351, "INCLINATION": 54.0855, "RA_OF_ASC_NODE": 306.4969, "ARG_OF_PERICENTER": 9.829, "MEAN_ANOMALY": 350.1669, "EPHEMERIS_TYPE": 0, "CLASSIFICATION_TYPE": "U", "NORAD_CAT_ID": 44794, "ELEMENT_SET_NO": 999, "REV_AT_EPOCH": 4110, "BSTAR": 0, "MEAN_MOTION_DOT": -7.4e-07, "MEAN_MOTION_DDOT": 0}, "tle": {"line1": "1 44794U 19078B   25342.60108934 -.00000074  00000+0  00000+0 0  9990", "line2": "2 44794  54.0855 306.4969 0003835   9.8290 350.1669  1.86227419 41107"}}, "geometry": {"type": "Point", "coordinates": [161.91765991497283, -38.7041855589468]}}, {"type": "Feature", "properties": {"norad_id": 44864, "name": "BEIDOU-3 M19 (C41)", "group": "beidou", "lat": 49.74145839534497, "lon": 120.7322527055187, "alt_km": 21560.409986546467, "timestamp": "2025-12-09T11:33:55.065209+00:00", "meta": {"OBJECT_NAME": "BEIDOU-3 M19 (C41)", "OBJECT_ID": "2019-090A", "EPOCH": "2025-12-02T22:27:31.551840", "MEAN_MOTION": 1.86231053, "ECCENTRICITY": 0.00175607, "INCLINATION": 56.3847, "RA_OF_ASC_NODE": 69.2872, "ARG_OF_PERICENTER": 284.9296, "MEAN_ANOMALY": 72.494, "EPHEMERIS_TYPE": 0, "CLASSIFICATION_TYPE": "U", "NORAD_CAT_ID": 44864, "ELEMENT_SET_NO": 999, "REV_AT_EPOCH": 4057, "BSTAR": 0, "MEAN_MOTION_DOT": -4.9e-07, "MEAN_MOTION_DDOT": 0}, "tle": {"line1": "1 44864U 19090A   25336.93578185 -.00000049  00000+0  00000+0 0  9992", "line2": "2 44864  56.3847  69.2872 0017560 284.9296  72.4940  1.86231053 40575"}}, "geometry": {"type": "Point", "coordinates": [120.7322527055187, 49.74145839534497]}}, {"type": "Feature", "properties": {"norad_id": 44865, "name": "BEIDOU-3 M20 (C42)", "group": "beidou", "lat": 19.982119061801345, "lon": -124.86054494697642, "alt_km": 21558.478569115818, "timestamp": "2025-12-09T11:33:55.065220+00:00", "meta": {"OBJECT_NAME": "BEIDOU-3 M20 (C42)", "OBJECT_ID": "2019-090B", "EPOCH": "2025-12-08T06:57:34.455168", "MEAN_MOTION": 1.8623116, "ECCENTRICITY": 0.00149301, "INCLINATION": 56.3913, "RA_OF_ASC_NODE": 69.143, "ARG_OF_PERICENTER": 297.776, "MEAN_ANOMALY": 138.9742, "EPHEMERIS_TYPE": 0, "CLASSIFICATION_TYPE": "U", "NORAD_CAT_ID": 44865, "ELEMENT_SET_NO": 999, "REV_AT_EPOCH": 4066, "BSTAR": 0, "MEAN_MOTION_DOT": -4.5e-07, "MEAN_MOTION_DDOT": 0}, "tle": {"line1": "1 44865U 19090B   25342.28998212 -.00000045  00000+0  00000+0 0  9991", "line2": "2 44865  56.3913  69.1430 0014930 297.7760 138.9742  1.86231160 40662"}}, "geometry": {"type": "Point", "coordinates": [-124.86054494697642, 19.982119061801345]}}, {"type": "Feature", "properties": {"norad_id": 45344, "name": "BEIDOU-3 G2 (C60)", "group": "beidou", "lat": -2.372106904902935, "lon": -28.000551376310323, "alt_km": 35769.10165729614, "timestamp": "2025-12-09T11:33:55.065231+00:00", "meta": {"OBJECT_NAME": "BEIDOU-3 G2 (C60)", "OBJECT_ID": "2020-017A", "EPOCH": "2025-12-08T17:24:33.367680", "MEAN_MOTION": 1.00273181, "ECCENTRICITY": 0.00043587, "INCLINATION": 2.49, "RA_OF_ASC_NODE": 43.8378, "ARG_OF_PERICENTER": 265.5358, "MEAN_ANOMALY": 109.5017, "EPHEMERIS_TYPE": 0, "CLASSIFICATION_TYPE": "U", "NORAD_CAT_ID": 45344, "ELEMENT_SET_NO": 999, "REV_AT_EPOCH": 2135, "BSTAR": 0, "MEAN_MOTION_DOT": -1.39e-06, "MEAN_MOTION_DDOT": 0}, "tle": {"line1": "1 45344U 20017A   25342.72538620 -.00000139  00000+0  00000+0 0  9991", "line2": "2 45344   2.4900  43.8378 0004358 265.5358 109.5017  1.00273181 21351"}}, "geometry": {"type": "Point", "coordinates": [-28.000551376310323, -2.372106904902935]}}, {"type": "Feature", "properties": {"norad_id": 45807, "name": "BEIDOU-3 G3 (C61)", "group": "beidou", "lat": -1.778673543103991, "lon": 2.4726803002678555, "alt_km": 35760.38265897274, "timestamp": "2025-12-09T11:33:55.065243+00:00", "meta": {"OBJECT_NAME": "BEIDOU-3 G3 (C61)", "OBJECT_ID": "2020-040A", "EPOCH": "2025-12-08T17:33:17.532288", "MEAN_MOTION": 1.00275813, "ECCENTRICITY": 0.00060306, "INCLINATION": 1.9816, "RA_OF_ASC_NODE": 66.5886, "ARG_OF_PERICENTER": 306.262, "MEAN_ANOMALY": 78.7159, "EPHEMERIS_TYPE": 0, "CLASSIFICATION_TYPE": "U", "NORAD_CAT_ID": 45807, "ELEMENT_SET_NO": 999, "REV_AT_EPOCH": 2016, "BSTAR": 0, "MEAN_MOTION_DOT": -3.52e-06, "MEAN_MOTION_DDOT": 0}, "tle": {"line1": "1 45807U 20040A   25342.73145292 -.00000352  00000+0  00000+0 0  9998", "line2": "2 45807   1.9816  66.5886 0006030 306.2620  78.7159  1.00275813 20161"}}, "geometry": {"type": "Point", "coordinates": [2.4726803002678555, -1.778673543103991]}}, {"type": "Feature", "properties": {"norad_id": 56564, "name": "BEIDOU-3 G4 (C62)", "group": "beidou", "lat": 0.7906684737402476, "lon": 51.98683237722345, "alt_km": 35793.5149959028, "timestamp": "2025-12-09T11:33:55.065255+00:00", "meta": {"OBJECT_NAME": "BEIDOU-3 G4 (C62)", "OBJECT_ID": "2023-066A", "EPOCH": "2025-12-09T05:16:38.690400", "MEAN_MOTION": 1.00271218, "ECCENTRICITY": 0.000303, "INCLINATION": 0.8226, "RA_OF_ASC_NODE": 301.7802, "ARG_OF_PERICENTER": 235.5487, "MEAN_ANOMALY": 140.1135, "EPHEMERIS_TYPE": 0, "CLASSIFICATION_TYPE": "U", "NORAD_CAT_ID": 56564, "ELEMENT_SET_NO": 999, "REV_AT_EPOCH": 949, "BSTAR": 0, "MEAN_MOTION_DOT": -1.09e-06, "MEAN_MOTION_DDOT": 0}, "tle": {"line1": "1 56564U 23066A   25343.21989225 -.00000109  00000+0  00000+0 0  9997", "line2": "2 56564   0.8226 301.7802 0003030 235.5487 140.1135  1.00271218  9496"}}, "geometry": {"type": "Point", "coordinates": [51.98683237722345, 0.7906684737402476]}}]}